     3.02           N: GNSS NAV DATA    G: GPS              RINEX VERSION / TYPE
Spider v7.5.1.8670  SMO                 20231005 140415 UTC PGM / RUN BY / DATE
GPSA   2.5146D-08  1.4901D-08 -1.1921D-07 -5.9605D-08       IONOSPHERIC CORR
GPSB   1.3312D+05 -1.6384D+04 -2.6214D+05  1.9661D+05       IONOSPHERIC CORR
GPUT  9.3132257462D-10 3.552713679D-15 589824 2282          TIME SYSTEM CORR
    18    18  2185     7                                    LEAP SECONDS
                                                            END OF HEADER
G16 2023 10 05 13 59 44-4.438930191100D-04 5.911715561524D-12 0.000000000000D+00
     5.000000000000D+00 6.375000000000D+01 4.275892528938D-09 1.358648757014D+00
     3.408640623093D-06 1.345198124181D-02 8.972361683846D-06 5.153671737671D+03
     3.959840000000D+05-2.160668373108D-07-2.011330304689D+00 3.352761268616D-08
     9.637990335955D-01 2.128125000000D+02 7.962734071607D-01-7.992833062076D-09
    -3.896590827779D-10 1.000000000000D+00 2.282000000000D+03 0.000000000000D+00
     2.000000000000D+00 0.000000000000D+00-1.024454832077D-08 5.000000000000D+00
     3.887100000000D+05                   
G17 2023 10 05 00 00 00 7.238714024425D-04 0.000000000000D+00 0.000000000000D+00
     1.000000000000D+02 4.984375000000D+01 4.503401651590D-09-6.789102337135D-01
     2.697110176086D-06 1.378574408591D-02 3.853812813759D-06 5.153589729309D+03
     3.456000000000D+05-1.359730958939D-07-9.892899656580D-01 6.146728992462D-08
     9.722275234645D-01 3.158750000000D+02-1.394793308066D+00-8.386063399257D-09
    -4.143029669335D-11 1.000000000000D+00 2.282000000000D+03 0.000000000000D+00
     2.000000000000D+00 0.000000000000D+00-1.117587089539D-08 1.000000000000D+02
     3.383400000000D+05                   
G18 2023 10 05 14 00 00-4.392871633172D-04-1.205080479849D-11 0.000000000000D+00
     2.100000000000D+01-3.925000000000D+01 4.240890749685D-09-1.669046605736D+00
    -2.285465598106D-06 3.773713251576D-03 3.751367330551D-06 5.153657436371D+03
     3.960000000000D+05-2.048909664154D-08 1.406396191189D-02-3.166496753693D-08
     9.745480465465D-01 3.158437500000D+02-3.082527605316D+00-8.092122527614D-09
     1.000041646715D-10 1.000000000000D+00 2.282000000000D+03 0.000000000000D+00
     2.800000000000D+00 0.000000000000D+00-8.381903171539D-09 5.330000000000D+02
     3.887400000000D+05                   
G19 2023 10 05 02 00 00 3.805826418102D-04 5.229594535194D-12 0.000000000000D+00
     2.300000000000D+01 5.631250000000D+01 4.403040598788D-09 2.442703931372D+00
     3.047287464142D-06 9.392716106959D-03 3.829598426819D-06 5.153656244278D+03
     3.528000000000D+05 1.657754182816D-07-9.448850783933D-01 1.844018697739D-07
     9.713635269727D-01 3.106250000000D+02 2.426583561608D+00-8.069264367805D-09
    -1.825076062500D-10 1.000000000000D+00 2.282000000000D+03 0.000000000000D+00
     2.000000000000D+00 0.000000000000D+00-1.536682248116D-08 2.300000000000D+01
     3.455400000000D+05                   
G20 2023 10 05 04 00 00 4.084529355168D-04-1.932676241267D-12 0.000000000000D+00
     1.100000000000D+01-6.043750000000D+01 4.611620862960D-09 9.887865784727D-02
    -3.211200237274D-06 4.091898910701D-03 7.012858986855D-06 5.153632873535D+03
     3.600000000000D+05 7.450580596924D-08 8.713448053629D-01 5.774199962616D-08
     9.503723261135D-01 2.396875000000D+02-2.830061827480D+00-8.185341293654D-09
     6.250260031759D-11 1.000000000000D+00 2.282000000000D+03 0.000000000000D+00
     2.000000000000D+00 0.000000000000D+00-8.381903171539D-09 1.100000000000D+01
     3.527400000000D+05                   
G21 2023 10 05 14 00 00 1.474637538195D-04-7.958078640513D-13 0.000000000000D+00
     4.800000000000D+01-2.118750000000D+01 4.756626648117D-09 4.007309174226D-01
    -1.445412635803D-06 2.481105306651D-02 3.961846232414D-06 5.153564186096D+03
     3.960000000000D+05 1.583248376846D-07-9.224642510816D-02-3.390014171600D-07
     9.621473829919D-01 3.056875000000D+02-6.987586453938D-01-8.668575190995D-09
     5.500229091626D-11 1.000000000000D+00 2.282000000000D+03 0.000000000000D+00
     2.000000000000D+00 0.000000000000D+00-1.024454832077D-08 4.800000000000D+01
     3.887400000000D+05                   
G22 2023 10 05 00 00 00 1.090643927455D-04-7.275957614183D-12 0.000000000000D+00
     1.900000000000D+01 7.593750000000D+01 4.640550610446D-09-1.098554544578D-01
     3.969296813011D-06 1.526849961374D-02 8.041039109230D-06 5.153610069275D+03
     3.456000000000D+05-1.154839992523D-07-2.007626637914D+00-1.285225152969D-07
     9.630743800508D-01 2.301250000000D+02-1.181680136281D+00-8.250700567203D-09
    -1.042900557580D-10 1.000000000000D+00 2.282000000000D+03 0.000000000000D+00
     2.000000000000D+00 0.000000000000D+00-1.117587089539D-08 1.900000000000D+01
     3.383400000000D+05                   
G23 2023 10 05 10 00 00 7.806206122041D-05 5.570655048359D-12 0.000000000000D+00
     6.900000000000D+01-6.646875000000D+01 4.260177544069D-09 1.521943950594D+00
    -3.362074494362D-06 3.714038408361D-03 6.912276148796D-06 5.153685951233D+03
     3.816000000000D+05 8.940696716309D-08 1.013725222387D+00 5.401670932770D-08
     9.756099465960D-01 2.547812500000D+02-3.082779214060D+00-7.919615185870D-09
     3.714440560687D-11 1.000000000000D+00 2.282000000000D+03 0.000000000000D+00
     2.000000000000D+00 0.000000000000D+00-8.381903171539D-09 8.370000000000D+02
     3.743400000000D+05                   
G24 2023 10 05 08 00 00-3.378535620868D-04-1.011812855722D-11 0.000000000000D+00
     5.400000000000D+01-3.218750000000D+00 5.187716034527D-09 1.675797740068D+00
    -3.241002559662D-07 1.457966363523D-02 7.787719368935D-06 5.153630409241D+03
     3.744000000000D+05-3.241002559662D-07 3.046107886689D+00-1.080334186554D-07
     9.343215546773D-01 2.182812500000D+02 9.265062527729D-01-8.344633428692D-09
    -1.353627765432D-10 1.000000000000D+00 2.282000000000D+03 0.000000000000D+00
     2.000000000000D+00 0.000000000000D+00 2.328306436539D-09 5.400000000000D+01
     3.671400000000D+05                   
G25 2023 10 05 09 59 28 4.712026566267D-04 1.932676241267D-12 0.000000000000D+00
     1.000000000000D+00 5.962500000000D+01 4.554475463436D-09 8.376643613401D-01
     3.021210432053D-06 1.123402384110D-02 8.823350071907D-06 5.153675245285D+03
     3.815680000000D+05-1.844018697739D-07-2.113216246659D+00 0.000000000000D+00
     9.520351607258D-01 2.049687500000D+02 1.053901559573D+00-8.154268371641D-09
    -2.921550223967D-10 1.000000000000D+00 2.282000000000D+03 0.000000000000D+00
     2.000000000000D+00 0.000000000000D+00 5.587935447693D-09 1.000000000000D+00
     3.743100000000D+05                   
G26 2023 10 05 14 00 00 2.249339595437D-04-2.160049916711D-12 0.000000000000D+00
     2.100000000000D+01 6.112500000000D+01 5.008065961931D-09 2.200617735785D+00
     3.080815076828D-06 8.281789836474D-03 8.737668395042D-06 5.153763599396D+03
     3.960000000000D+05-1.732259988785D-07-2.171467931498D+00-5.774199962616D-08
     9.328476530091D-01 1.980312500000D+02 4.761130087036D-01-8.169268816971D-09
    -3.250135438559D-10 1.000000000000D+00 2.282000000000D+03 0.000000000000D+00
     2.000000000000D+00 0.000000000000D+00 6.984919309616D-09 2.100000000000D+01
     3.887400000000D+05                   
G27 2023 10 05 14 00 00-5.041761323810D-05-5.911715561524D-12 0.000000000000D+00
     9.000000000000D+00 7.556250000000D+01 4.309822276838D-09 4.477490108635D-01
     3.911554813385D-06 1.165724243037D-02 5.306676030159D-06 5.153674623489D+03
     3.960000000000D+05-8.195638656616D-08-1.056327822374D+00 2.011656761169D-07
     9.654769187090D-01 2.808750000000D+02 7.419102244074D-01-8.229271486471D-09
    -2.178662111829D-11 1.000000000000D+00 2.282000000000D+03 0.000000000000D+00
     2.000000000000D+00 0.000000000000D+00 1.396983861923D-09 9.000000000000D+00
     3.887400000000D+05                   
G28 2023 10 05 14 00 00-2.025766298175D-05-6.366462912410D-12 0.000000000000D+00
     7.800000000000D+01-9.375000000000D-02 4.649836515824D-09 2.436716103806D+00
     0.000000000000D+00 7.074766326696D-04 7.776543498039D-06 5.153751825333D+03
     3.960000000000D+05 4.097819328308D-08 3.103039280647D+00 1.862645149231D-08
     9.618528610096D-01 2.302812500000D+02 1.564932313301D+00-7.903186549640D-09
    -2.135803200964D-10 1.000000000000D+00 2.282000000000D+03 0.000000000000D+00
     2.000000000000D+00 0.000000000000D+00-9.778887033463D-09 5.900000000000D+02
     3.887400000000D+05                   
G29 2023 10 05 11 59 44-6.098649464548D-04-2.273736754432D-13 0.000000000000D+00
     2.000000000000D+00 7.115625000000D+01 4.153029919962D-09-7.753941604963D-01
     3.393739461899D-06 2.576571074314D-03 4.645437002182D-06 5.153707704544D+03
     3.887840000000D+05-2.048909664154D-08-9.752266298750D-01-5.215406417847D-08
     9.745520915149D-01 2.957187500000D+02 2.574767741846D+00-8.052478683851D-09
     1.189335296914D-10 1.000000000000D+00 2.282000000000D+03 0.000000000000D+00
     2.000000000000D+00 0.000000000000D+00-9.778887033463D-09 2.000000000000D+00
     3.815100000000D+05                   
G30 2023 10 05 04 00 00-4.816302098334D-04 3.637978807092D-12 0.000000000000D+00
     1.060000000000D+02 1.250000000000D+00 5.163429239730D-09-1.537491238293D+00
    -1.061707735062D-07 6.588998716325D-03 7.400289177895D-06 5.153751420975D+03
     3.600000000000D+05 1.229345798492D-07-3.139923466987D+00-5.029141902924D-08
     9.358522907129D-01 2.193125000000D+02-2.548152943450D+00-8.194270151307D-09
    -3.643008811283D-11 1.000000000000D+00 2.282000000000D+03 0.000000000000D+00
     2.000000000000D+00 0.000000000000D+00 3.725290298462D-09 1.060000000000D+02
     3.527400000000D+05                   
